SHIYAN-1 (SY-1)         
1 28220U 04012A   26068.73650539  .00016393  00000+0  54854-3 0  9991
2 28220  97.8764 140.5238 0005873  23.6952 336.4557 15.31043463195862
STARLINK-31476          
1 59523U 24073N   26068.03407429 -.00002186  00000+0 -69917-4 0  9995
2 59523  43.0016 321.8672 0001693 264.7192  95.3466 15.27579294106077
